[{"OBJECT_NAME":"TWILIGHT-1 OBJECT AC","OBJECT_ID":"2026-004AC","EPOCH":"2026-03-09T12:46:33.802752","MEAN_MOTION":15.17544269,"ECCENTRICITY":0.00027973,"INCLINATION":97.4598,"RA_OF_ASC_NODE":69.0026,"ARG_OF_PERICENTER":3.0882,"MEAN_ANOMALY":357.0369,"EPHEMERIS_TYPE":0,"CLASSIFICATION_TYPE":"U","NORAD_CAT_ID":67389,"ELEMENT_SET_NO":999,"REV_AT_EPOCH":863,"BSTAR":0.00031419474,"MEAN_MOTION_DOT":6.24e-5,"MEAN_MOTION_DDOT":0},{"OBJECT_NAME":"COSMOS 1933","OBJECT_ID":"1988-020A","EPOCH":"2026-03-09T22:07:36.922368","MEAN_MOTION":15.17984641,"ECCENTRICITY":0.00038825,"INCLINATION":82.5099,"RA_OF_ASC_NODE":250.6818,"ARG_OF_PERICENTER":179.5653,"MEAN_ANOMALY":180.5585,"EPHEMERIS_TYPE":0,"CLASSIFICATION_TYPE":"U","NORAD_CAT_ID":18958,"ELEMENT_SET_NO":999,"REV_AT_EPOCH":5026,"BSTAR":0.00026961207,"MEAN_MOTION_DOT":5.508e-5,"MEAN_MOTION_DDOT":0}]
